[Satellite]
VERSION=1.1
NAME=ORBVIEW 1 (MICROLAB)
NICKNAME=ORBVIEW 1 (MICROLAB)
TLE1=1 23547U 95017C   11059.47991883  .00000226  00000-0  66310-4 0  5028
TLE2=2 23547  69.9815 180.2347 0008926  99.2261 260.9907 14.55738105843029
